FENGYUN 1C DEB          
1 30520U 99025AJJ 26063.50675131  .00043952  00000+0  20237-2 0  9998
2 30520  98.7212 253.4173 0064333 186.1736 173.8709 15.18299338 22803
FENGYUN 1C DEB          
1 30521U 99025AJK 26063.67051670  .00002870  00000+0  55143-3 0  9992
2 30521  98.9969 210.6257 0134204 354.9232   5.0595 14.58957770  7743
FENGYUN 1C DEB          
1 30523U 99025AJM 26063.44271138  .00000742  00000+0  23353-3 0  9996
2 30523  98.4774  44.4217 0241542 228.0422 286.3145 14.28129661992665
FENGYUN 1C DEB          
1 30524U 99025AJN 26061.95947119  .00004390  00000+0  28695-2 0  9996
2 30524  99.3134 239.5768 0200323  33.2071 328.1478 13.93424499950028
FENGYUN 1C DEB          
1 30525U 99025AJP 26063.63233589  .00002243  00000+0  23493-2 0  9999
2 30525  98.6014 303.8071 0292287  94.9366 268.5209 13.58862986942298
FENGYUN 1C DEB          
1 30526U 99025AJQ 26063.64501123  .00000176  00000+0  25453-3 0  9995
2 30526  99.5373 147.6015 0304804  60.4764 302.6398 13.50019260937630
FENGYUN 1C DEB          
1 30527U 99025AJR 26063.78272984  .00001108  00000+0  15181-2 0  9993
2 30527 100.0534 110.5008 0409362  31.6905  34.0315 13.31229832924482
FENGYUN 1C DEB          
1 30528U 99025AJS 26063.59909944  .00000893  00000+0  44771-3 0  9994
2 30528  98.2302 291.7788 0144067 350.1184  38.9892 14.13627420982941
FENGYUN 1C DEB          
1 30529U 99025AJT 26063.41742777  .00002376  00000+0  21972-2 0  9990
2 30529  98.4888 340.9727 0232644   3.6999 356.5806 13.71846279951281
FENGYUN 1C DEB          
1 30530U 99025AJU 26063.58163370  .00000845  00000+0  28459-3 0  9993
2 30530  98.3848 104.9127 0098067 252.2241 262.0248 14.36928897999609
FENGYUN 1C DEB          
1 30531U 99025AJV 26063.19710226  .00027897  00000+0  51077-2 0  9996
2 30531 102.3119 294.1074 0028433 341.3966  18.6180 14.65528834988870
FENGYUN 1C DEB          
1 30533U 99025AJX 26063.36142194  .00024693  00000+0  53683-2 0  9996
2 30533  98.8347 201.7931 0079033 258.9432 121.9246 14.56046050990085
FENGYUN 1C DEB          
1 30539U 99025AKD 26063.50791492  .00004800  00000+0  10087-2 0  9998
2 30539  98.8892  54.1707 0116454  27.7037 333.0298 14.55903685  5332
FENGYUN 1C DEB          
1 30540U 99025AKE 26063.82357457  .00007727  00000+0  27744-2 0  9993
2 30540  98.8764 179.1662 0054433 179.7014 333.0490 14.33294433984612
FENGYUN 1C DEB          
1 30541U 99025AKF 26063.56185245  .00002359  00000+0  10552-2 0  9994
2 30541  98.6844 114.0697 0018279 201.2965 158.7455 14.23473896984917
FENGYUN 1C DEB          
1 30542U 99025AKG 26063.56870084  .00000155  00000+0  11787-3 0  9991
2 30542  98.7781  94.9726 0029129 102.2338  51.4509 14.07021142980693
