[{"OBJECT_NAME":"FENGYUN 1C DEB","OBJECT_ID":"1999-025AJJ","EPOCH":"2026-03-04T12:09:43.313184","MEAN_MOTION":15.18299338,"ECCENTRICITY":0.00643334,"INCLINATION":98.7212,"RA_OF_ASC_NODE":253.4173,"ARG_OF_PERICENTER":186.1736,"MEAN_ANOMALY":173.8709,"EPHEMERIS_TYPE":0,"CLASSIFICATION_TYPE":"U","NORAD_CAT_ID":30520,"ELEMENT_SET_NO":999,"REV_AT_EPOCH":2280,"BSTAR":0.0020237081,"MEAN_MOTION_DOT":0.00043952,"MEAN_MOTION_DDOT":0},{"OBJECT_NAME":"FENGYUN 1C DEB","OBJECT_ID":"1999-025AJK","EPOCH":"2026-03-04T16:05:32.642880","MEAN_MOTION":14.5895777,"ECCENTRICITY":0.0134204,"INCLINATION":98.9969,"RA_OF_ASC_NODE":210.6257,"ARG_OF_PERICENTER":354.9232,"MEAN_ANOMALY":5.0595,"EPHEMERIS_TYPE":0,"CLASSIFICATION_TYPE":"U","NORAD_CAT_ID":30521,"ELEMENT_SET_NO":999,"REV_AT_EPOCH":774,"BSTAR":0.00055143,"MEAN_MOTION_DOT":2.87e-5,"MEAN_MOTION_DDOT":0},{"OBJECT_NAME":"FENGYUN 1C DEB","OBJECT_ID":"1999-025AJM","EPOCH":"2026-03-04T10:37:30.263232","MEAN_MOTION":14.28129661,"ECCENTRICITY":0.02415425,"INCLINATION":98.4774,"RA_OF_ASC_NODE":44.4217,"ARG_OF_PERICENTER":228.0422,"MEAN_ANOMALY":286.3145,"EPHEMERIS_TYPE":0,"CLASSIFICATION_TYPE":"U","NORAD_CAT_ID":30523,"ELEMENT_SET_NO":999,"REV_AT_EPOCH":99266,"BSTAR":0.00023353008,"MEAN_MOTION_DOT":7.42e-6,"MEAN_MOTION_DDOT":0},{"OBJECT_NAME":"FENGYUN 1C DEB","OBJECT_ID":"1999-025AJN","EPOCH":"2026-03-02T23:01:38.310816","MEAN_MOTION":13.93424499,"ECCENTRICITY":0.0200323,"INCLINATION":99.3134,"RA_OF_ASC_NODE":239.5768,"ARG_OF_PERICENTER":33.2071,"MEAN_ANOMALY":328.1478,"EPHEMERIS_TYPE":0,"CLASSIFICATION_TYPE":"U","NORAD_CAT_ID":30524,"ELEMENT_SET_NO":999,"REV_AT_EPOCH":95002,"BSTAR":0.0028695,"MEAN_MOTION_DOT":4.39e-5,"MEAN_MOTION_DDOT":0},{"OBJECT_NAME":"FENGYUN 1C DEB","OBJECT_ID":"1999-025AJP","EPOCH":"2026-03-04T15:10:33.820896","MEAN_MOTION":13.58862986,"ECCENTRICITY":0.0292287,"INCLINATION":98.6014,"RA_OF_ASC_NODE":303.8071,"ARG_OF_PERICENTER":94.9366,"MEAN_ANOMALY":268.5209,"EPHEMERIS_TYPE":0,"CLASSIFICATION_TYPE":"U","NORAD_CAT_ID":30525,"ELEMENT_SET_NO":999,"REV_AT_EPOCH":94229,"BSTAR":0.0023493,"MEAN_MOTION_DOT":2.243e-5,"MEAN_MOTION_DDOT":0},{"OBJECT_NAME":"FENGYUN 1C DEB","OBJECT_ID":"1999-025AJQ","EPOCH":"2026-03-04T15:28:48.970272","MEAN_MOTION":13.5001926,"ECCENTRICITY":0.0304804,"INCLINATION":99.5373,"RA_OF_ASC_NODE":147.6015,"ARG_OF_PERICENTER":60.4764,"MEAN_ANOMALY":302.6398,"EPHEMERIS_TYPE":0,"CLASSIFICATION_TYPE":"U","NORAD_CAT_ID":30526,"ELEMENT_SET_NO":999,"REV_AT_EPOCH":93763,"BSTAR":0.00025453,"MEAN_MOTION_DOT":1.76e-6,"MEAN_MOTION_DDOT":0},{"OBJECT_NAME":"FENGYUN 1C DEB","OBJECT_ID":"1999-025AJR","EPOCH":"2026-03-04T18:47:07.858176","MEAN_MOTION":13.31229832,"ECCENTRICITY":0.0409362,"INCLINATION":100.0534,"RA_OF_ASC_NODE":110.5008,"ARG_OF_PERICENTER":31.6905,"MEAN_ANOMALY":34.0315,"EPHEMERIS_TYPE":0,"CLASSIFICATION_TYPE":"U","NORAD_CAT_ID":30527,"ELEMENT_SET_NO":999,"REV_AT_EPOCH":92448,"BSTAR":0.0015181,"MEAN_MOTION_DOT":1.108e-5,"MEAN_MOTION_DDOT":0},{"OBJECT_NAME":"FENGYUN 1C DEB","OBJECT_ID":"1999-025AJS","EPOCH":"2026-03-04T14:22:42.191616","MEAN_MOTION":14.1362742,"ECCENTRICITY":0.0144067,"INCLINATION":98.2302,"RA_OF_ASC_NODE":291.7788,"ARG_OF_PERICENTER":350.1184,"MEAN_ANOMALY":38.9892,"EPHEMERIS_TYPE":0,"CLASSIFICATION_TYPE":"U","NORAD_CAT_ID":30528,"ELEMENT_SET_NO":999,"REV_AT_EPOCH":98294,"BSTAR":0.00044771,"MEAN_MOTION_DOT":8.93e-6,"MEAN_MOTION_DDOT":0},{"OBJECT_NAME":"FENGYUN 1C DEB","OBJECT_ID":"1999-025AJT","EPOCH":"2026-03-04T10:01:05.759328","MEAN_MOTION":13.71846279,"ECCENTRICITY":0.02326449,"INCLINATION":98.4888,"RA_OF_ASC_NODE":340.9727,"ARG_OF_PERICENTER":3.6999,"MEAN_ANOMALY":356.5806,"EPHEMERIS_TYPE":0,"CLASSIFICATION_TYPE":"U","NORAD_CAT_ID":30529,"ELEMENT_SET_NO":999,"REV_AT_EPOCH":95128,"BSTAR":0.0021971804,"MEAN_MOTION_DOT":2.376e-5,"MEAN_MOTION_DDOT":0},{"OBJECT_NAME":"FENGYUN 1C DEB","OBJECT_ID":"1999-025AJU","EPOCH":"2026-03-04T13:57:33.151680","MEAN_MOTION":14.36928897,"ECCENTRICITY":0.0098067,"INCLINATION":98.3848,"RA_OF_ASC_NODE":104.9127,"ARG_OF_PERICENTER":252.2241,"MEAN_ANOMALY":262.0248,"EPHEMERIS_TYPE":0,"CLASSIFICATION_TYPE":"U","NORAD_CAT_ID":30530,"ELEMENT_SET_NO":999,"REV_AT_EPOCH":99960,"BSTAR":0.00028459,"MEAN_MOTION_DOT":8.45e-6,"MEAN_MOTION_DDOT":0},{"OBJECT_NAME":"FENGYUN 1C DEB","OBJECT_ID":"1999-025AJV","EPOCH":"2026-03-04T04:43:49.635264","MEAN_MOTION":14.65528834,"ECCENTRICITY":0.00284333,"INCLINATION":102.3119,"RA_OF_ASC_NODE":294.1074,"ARG_OF_PERICENTER":341.3966,"MEAN_ANOMALY":18.618,"EPHEMERIS_TYPE":0,"CLASSIFICATION_TYPE":"U","NORAD_CAT_ID":30531,"ELEMENT_SET_NO":999,"REV_AT_EPOCH":98887,"BSTAR":0.0051076548,"MEAN_MOTION_DOT":0.00027897,"MEAN_MOTION_DDOT":0},{"OBJECT_NAME":"FENGYUN 1C DEB","OBJECT_ID":"1999-025AJX","EPOCH":"2026-03-04T08:40:26.855616","MEAN_MOTION":14.5604605,"ECCENTRICITY":0.00790334,"INCLINATION":98.8347,"RA_OF_ASC_NODE":201.7931,"ARG_OF_PERICENTER":258.9432,"MEAN_ANOMALY":121.9246,"EPHEMERIS_TYPE":0,"CLASSIFICATION_TYPE":"U","NORAD_CAT_ID":30533,"ELEMENT_SET_NO":999,"REV_AT_EPOCH":99008,"BSTAR":0.0053682694,"MEAN_MOTION_DOT":0.00024693,"MEAN_MOTION_DDOT":0},{"OBJECT_NAME":"FENGYUN 1C DEB","OBJECT_ID":"1999-025AKD","EPOCH":"2026-03-04T12:11:23.849088","MEAN_MOTION":14.55903685,"ECCENTRICITY":0.0116454,"INCLINATION":98.8892,"RA_OF_ASC_NODE":54.1707,"ARG_OF_PERICENTER":27.7037,"MEAN_ANOMALY":333.0298,"EPHEMERIS_TYPE":0,"CLASSIFICATION_TYPE":"U","NORAD_CAT_ID":30539,"ELEMENT_SET_NO":999,"REV_AT_EPOCH":533,"BSTAR":0.0010087,"MEAN_MOTION_DOT":4.8e-5,"MEAN_MOTION_DDOT":0},{"OBJECT_NAME":"FENGYUN 1C DEB","OBJECT_ID":"1999-025AKE","EPOCH":"2026-03-04T19:45:56.842848","MEAN_MOTION":14.33294433,"ECCENTRICITY":0.0054433,"INCLINATION":98.8764,"RA_OF_ASC_NODE":179.1662,"ARG_OF_PERICENTER":179.7014,"MEAN_ANOMALY":333.049,"EPHEMERIS_TYPE":0,"CLASSIFICATION_TYPE":"U","NORAD_CAT_ID":30540,"ELEMENT_SET_NO":999,"REV_AT_EPOCH":98461,"BSTAR":0.0027744,"MEAN_MOTION_DOT":7.727e-5,"MEAN_MOTION_DDOT":0},{"OBJECT_NAME":"FENGYUN 1C DEB","OBJECT_ID":"1999-025AKF","EPOCH":"2026-03-04T13:29:04.051680","MEAN_MOTION":14.23473896,"ECCENTRICITY":0.0018279,"INCLINATION":98.6844,"RA_OF_ASC_NODE":114.0697,"ARG_OF_PERICENTER":201.2965,"MEAN_ANOMALY":158.7455,"EPHEMERIS_TYPE":0,"CLASSIFICATION_TYPE":"U","NORAD_CAT_ID":30541,"ELEMENT_SET_NO":999,"REV_AT_EPOCH":98491,"BSTAR":0.0010552,"MEAN_MOTION_DOT":2.359e-5,"MEAN_MOTION_DDOT":0},{"OBJECT_NAME":"FENGYUN 1C DEB","OBJECT_ID":"1999-025AKG","EPOCH":"2026-03-04T13:38:55.752576","MEAN_MOTION":14.07021142,"ECCENTRICITY":0.0029129,"INCLINATION":98.7781,"RA_OF_ASC_NODE":94.9726,"ARG_OF_PERICENTER":102.2338,"MEAN_ANOMALY":51.4509,"EPHEMERIS_TYPE":0,"CLASSIFICATION_TYPE":"U","NORAD_CAT_ID":30542,"ELEMENT_SET_NO":999,"REV_AT_EPOCH":98069,"BSTAR":0.00011787,"MEAN_MOTION_DOT":1.55e-6,"MEAN_MOTION_DDOT":0}]
